CCSDS_OMM_VERS = 2.0
CREATION_DATE  = 
ORIGINATOR     = 

OBJECT_NAME    = SL-14 R/B
OBJECT_ID      = 1986-046B
CENTER_NAME    = EARTH
REF_FRAME      = TEME
TIME_SYSTEM    = UTC
MEAN_ELEMENT_THEORY = SGP/SGP4

EPOCH          = 2025-12-29T19:46:19.310304
MEAN_MOTION    = 14.85505579
ECCENTRICITY   = .0024571
INCLINATION    = 82.4822
RA_OF_ASC_NODE = 146.1798
ARG_OF_PERICENTER = 98.4855
MEAN_ANOMALY   = 261.9147

EPHEMERIS_TYPE = 0
CLASSIFICATION_TYPE = U
NORAD_CAT_ID   = 16792
ELEMENT_SET_NO = 999
REV_AT_EPOCH   = 11603
BSTAR          = .96324E-4
MEAN_MOTION_DOT = .86E-5
MEAN_MOTION_DDOT = 0

CCSDS_OMM_VERS = 2.0
CREATION_DATE  = 
ORIGINATOR     = 

OBJECT_NAME    = SL-14 R/B
OBJECT_ID      = 1986-055B
CENTER_NAME    = EARTH
REF_FRAME      = TEME
TIME_SYSTEM    = UTC
MEAN_ELEMENT_THEORY = SGP/SGP4

EPOCH          = 2025-12-29T19:29:21.075072
MEAN_MOTION    = 14.85549124
ECCENTRICITY   = .0018352
INCLINATION    = 82.5193
RA_OF_ASC_NODE = 192.3300
ARG_OF_PERICENTER = 199.2693
MEAN_ANOMALY   = 171.3287

EPHEMERIS_TYPE = 0
CLASSIFICATION_TYPE = U
NORAD_CAT_ID   = 16882
ELEMENT_SET_NO = 999
REV_AT_EPOCH   = 10899
BSTAR          = .87795E-4
MEAN_MOTION_DOT = .785E-5
MEAN_MOTION_DDOT = 0

CCSDS_OMM_VERS = 2.0
CREATION_DATE  = 
ORIGINATOR     = 

OBJECT_NAME    = AJISAI (EGS)
OBJECT_ID      = 1986-061A
CENTER_NAME    = EARTH
REF_FRAME      = TEME
TIME_SYSTEM    = UTC
MEAN_ELEMENT_THEORY = SGP/SGP4

EPOCH          = 2025-12-29T18:29:14.496288
MEAN_MOTION    = 12.44514477
ECCENTRICITY   = .0011318
INCLINATION    = 50.0110
RA_OF_ASC_NODE = 308.3500
ARG_OF_PERICENTER = 108.6324
MEAN_ANOMALY   = 330.4581

EPHEMERIS_TYPE = 0
CLASSIFICATION_TYPE = U
NORAD_CAT_ID   = 16908
ELEMENT_SET_NO = 999
REV_AT_EPOCH   = 45929
BSTAR          = .45676E-4
MEAN_MOTION_DOT = -.91E-6
MEAN_MOTION_DDOT = 0

CCSDS_OMM_VERS = 2.0
CREATION_DATE  = 
ORIGINATOR     = 

OBJECT_NAME    = COSMOS 1812
OBJECT_ID      = 1987-003A
CENTER_NAME    = EARTH
REF_FRAME      = TEME
TIME_SYSTEM    = UTC
MEAN_ELEMENT_THEORY = SGP/SGP4

EPOCH          = 2025-12-29T19:07:09.816096
MEAN_MOTION    = 15.79358065
ECCENTRICITY   = .0005559
INCLINATION    = 82.4868
RA_OF_ASC_NODE = 273.5046
ARG_OF_PERICENTER = 63.4702
MEAN_ANOMALY   = 296.7134

EPHEMERIS_TYPE = 0
CLASSIFICATION_TYPE = U
NORAD_CAT_ID   = 17295
ELEMENT_SET_NO = 999
REV_AT_EPOCH   = 13334
BSTAR          = .86845E-3
MEAN_MOTION_DOT = .158656E-2
MEAN_MOTION_DDOT = 0

CCSDS_OMM_VERS = 2.0
CREATION_DATE  = 
ORIGINATOR     = 

OBJECT_NAME    = SL-14 R/B
OBJECT_ID      = 1987-024B
CENTER_NAME    = EARTH
REF_FRAME      = TEME
TIME_SYSTEM    = UTC
MEAN_ELEMENT_THEORY = SGP/SGP4

EPOCH          = 2025-12-29T19:33:58.147776
MEAN_MOTION    = 14.86044491
ECCENTRICITY   = .0019405
INCLINATION    = 82.5284
RA_OF_ASC_NODE = 158.4136
ARG_OF_PERICENTER = 129.3297
MEAN_ANOMALY   = 230.9644

EPHEMERIS_TYPE = 0
CLASSIFICATION_TYPE = U
NORAD_CAT_ID   = 17567
ELEMENT_SET_NO = 999
REV_AT_EPOCH   = 7775
BSTAR          = .96497E-4
MEAN_MOTION_DOT = .871E-5
MEAN_MOTION_DDOT = 0

CCSDS_OMM_VERS = 2.0
CREATION_DATE  = 
ORIGINATOR     = 

OBJECT_NAME    = COSMOS 1833
OBJECT_ID      = 1987-027A
CENTER_NAME    = EARTH
REF_FRAME      = TEME
TIME_SYSTEM    = UTC
MEAN_ELEMENT_THEORY = SGP/SGP4

EPOCH          = 2025-12-29T16:58:57.021024
MEAN_MOTION    = 14.13031419
ECCENTRICITY   = .0023336
INCLINATION    = 70.9173
RA_OF_ASC_NODE = 113.1094
ARG_OF_PERICENTER = 308.1145
MEAN_ANOMALY   = 51.7872

EPHEMERIS_TYPE = 0
CLASSIFICATION_TYPE = U
NORAD_CAT_ID   = 17589
ELEMENT_SET_NO = 999
REV_AT_EPOCH   = 43
BSTAR          = .19665E-3
MEAN_MOTION_DOT = .32E-5
MEAN_MOTION_DDOT = 0

CCSDS_OMM_VERS = 2.0
CREATION_DATE  = 
ORIGINATOR     = 

OBJECT_NAME    = SL-16 R/B
OBJECT_ID      = 1987-027B
CENTER_NAME    = EARTH
REF_FRAME      = TEME
TIME_SYSTEM    = UTC
MEAN_ELEMENT_THEORY = SGP/SGP4

EPOCH          = 2025-12-29T14:26:26.200896
MEAN_MOTION    = 14.17156162
ECCENTRICITY   = .0007116
INCLINATION    = 71.0035
RA_OF_ASC_NODE = 64.1878
ARG_OF_PERICENTER = 242.0853
MEAN_ANOMALY   = 117.9550

EPHEMERIS_TYPE = 0
CLASSIFICATION_TYPE = U
NORAD_CAT_ID   = 17590
ELEMENT_SET_NO = 999
REV_AT_EPOCH   = 541
BSTAR          = -.60202E-4
MEAN_MOTION_DOT = -.169E-5
MEAN_MOTION_DDOT = 0

CCSDS_OMM_VERS = 2.0
CREATION_DATE  = 
ORIGINATOR     = 

OBJECT_NAME    = SL-14 R/B
OBJECT_ID      = 1987-038B
CENTER_NAME    = EARTH
REF_FRAME      = TEME
TIME_SYSTEM    = UTC
MEAN_ELEMENT_THEORY = SGP/SGP4

EPOCH          = 2025-12-29T12:06:53.635680
MEAN_MOTION    = 14.85278909
ECCENTRICITY   = .0020328
INCLINATION    = 82.5010
RA_OF_ASC_NODE = 2.9082
ARG_OF_PERICENTER = 40.4024
MEAN_ANOMALY   = 319.8697

EPHEMERIS_TYPE = 0
CLASSIFICATION_TYPE = U
NORAD_CAT_ID   = 17912
ELEMENT_SET_NO = 999
REV_AT_EPOCH   = 6881
BSTAR          = .87804E-4
MEAN_MOTION_DOT = .78E-5
MEAN_MOTION_DDOT = 0

CCSDS_OMM_VERS = 2.0
CREATION_DATE  = 
ORIGINATOR     = 

OBJECT_NAME    = COSMOS 1844
OBJECT_ID      = 1987-041A
CENTER_NAME    = EARTH
REF_FRAME      = TEME
TIME_SYSTEM    = UTC
MEAN_ELEMENT_THEORY = SGP/SGP4

EPOCH          = 2025-12-29T19:35:59.188128
MEAN_MOTION    = 14.14535320
ECCENTRICITY   = .0029193
INCLINATION    = 70.8978
RA_OF_ASC_NODE = 181.5531
ARG_OF_PERICENTER = 130.0297
MEAN_ANOMALY   = 230.3393

EPHEMERIS_TYPE = 0
CLASSIFICATION_TYPE = U
NORAD_CAT_ID   = 17973
ELEMENT_SET_NO = 999
REV_AT_EPOCH   = 99370
BSTAR          = .20892E-3
MEAN_MOTION_DOT = .354E-5
MEAN_MOTION_DDOT = 0

CCSDS_OMM_VERS = 2.0
CREATION_DATE  = 
ORIGINATOR     = 

OBJECT_NAME    = SL-14 R/B
OBJECT_ID      = 1987-055B
CENTER_NAME    = EARTH
REF_FRAME      = TEME
TIME_SYSTEM    = UTC
MEAN_ELEMENT_THEORY = SGP/SGP4

EPOCH          = 2025-12-29T13:27:58.082688
MEAN_MOTION    = 14.85539646
ECCENTRICITY   = .0019315
INCLINATION    = 82.4987
RA_OF_ASC_NODE = 55.1345
ARG_OF_PERICENTER = 243.5705
MEAN_ANOMALY   = 116.3529

EPHEMERIS_TYPE = 0
CLASSIFICATION_TYPE = U
NORAD_CAT_ID   = 18153
ELEMENT_SET_NO = 999
REV_AT_EPOCH   = 5952
BSTAR          = .79276E-4
MEAN_MOTION_DOT = .711E-5
MEAN_MOTION_DDOT = 0

CCSDS_OMM_VERS = 2.0
CREATION_DATE  = 
ORIGINATOR     = 

OBJECT_NAME    = COSMOS 1867
OBJECT_ID      = 1987-060A
CENTER_NAME    = EARTH
REF_FRAME      = TEME
TIME_SYSTEM    = UTC
MEAN_ELEMENT_THEORY = SGP/SGP4

EPOCH          = 2025-12-29T18:56:08.992608
MEAN_MOTION    = 14.31489225
ECCENTRICITY   = .001374
INCLINATION    = 65.0097
RA_OF_ASC_NODE = 142.4575
ARG_OF_PERICENTER = 272.8491
MEAN_ANOMALY   = 87.1020

EPHEMERIS_TYPE = 0
CLASSIFICATION_TYPE = U
NORAD_CAT_ID   = 18187
ELEMENT_SET_NO = 999
REV_AT_EPOCH   = 993
BSTAR          = .46595E-4
MEAN_MOTION_DOT = .24E-6
MEAN_MOTION_DDOT = 0

CCSDS_OMM_VERS = 2.0
CREATION_DATE  = 
ORIGINATOR     = 

OBJECT_NAME    = SL-14 R/B
OBJECT_ID      = 1988-001B
CENTER_NAME    = EARTH
REF_FRAME      = TEME
TIME_SYSTEM    = UTC
MEAN_ELEMENT_THEORY = SGP/SGP4

EPOCH          = 2025-12-29T19:42:36.926208
MEAN_MOTION    = 14.85442989
ECCENTRICITY   = .0019559
INCLINATION    = 82.5132
RA_OF_ASC_NODE = 261.0824
ARG_OF_PERICENTER = 107.8004
MEAN_ANOMALY   = 252.5348

EPHEMERIS_TYPE = 0
CLASSIFICATION_TYPE = U
NORAD_CAT_ID   = 18749
ELEMENT_SET_NO = 999
REV_AT_EPOCH   = 3165
BSTAR          = .7846E-4
MEAN_MOTION_DOT = .703E-5
MEAN_MOTION_DDOT = 0

