SL-14 R/B               
1 16792U 86046B   25363.82383461  .00000860  00000+0  96324-4 0  9994
2 16792  82.4822 146.1798 0024571  98.4855 261.9147 14.85505579116037
SL-14 R/B               
1 16882U 86055B   25363.81204948  .00000785  00000+0  87795-4 0  9993
2 16882  82.5193 192.3300 0018352 199.2693 171.3287 14.85549124108990
AJISAI (EGS)            
1 16908U 86061A   25363.77030667 -.00000091  00000+0  45676-4 0  9992
2 16908  50.0110 308.3500 0011318 108.6324 330.4581 12.44514477459292
COSMOS 1812             
1 17295U 87003A   25363.79664139  .00158656  00000+0  86845-3 0  9990
2 17295  82.4868 273.5046 0005559  63.4702 296.7134 15.79358065133340
SL-14 R/B               
1 17567U 87024B   25363.81525634  .00000871  00000+0  96497-4 0  9994
2 17567  82.5284 158.4136 0019405 129.3297 230.9644 14.86044491 77752
COSMOS 1833             
1 17589U 87027A   25363.70760441  .00000320  00000+0  19665-3 0  9996
2 17589  70.9173 113.1094 0023336 308.1145  51.7872 14.13031419   431
SL-16 R/B               
1 17590U 87027B   25363.60169214 -.00000169  00000+0 -60202-4 0  9995
2 17590  71.0035  64.1878 0007116 242.0853 117.9550 14.17156162  5415
SL-14 R/B               
1 17912U 87038B   25363.50478745  .00000780  00000+0  87804-4 0  9990
2 17912  82.5010   2.9082 0020328  40.4024 319.8697 14.85278909 68817
COSMOS 1844             
1 17973U 87041A   25363.81665727  .00000354  00000+0  20892-3 0  9993
2 17973  70.8978 181.5531 0029193 130.0297 230.3393 14.14535320993707
SL-14 R/B               
1 18153U 87055B   25363.56108892  .00000711  00000+0  79276-4 0  9994
2 18153  82.4987  55.1345 0019315 243.5705 116.3529 14.85539646 59525
COSMOS 1867             
1 18187U 87060A   25363.78899297  .00000024  00000+0  46595-4 0  9992
2 18187  65.0097 142.4575 0013740 272.8491  87.1020 14.31489225  9938
SL-14 R/B               
1 18749U 88001B   25363.82126072  .00000703  00000+0  78460-4 0  9991
2 18749  82.5132 261.0824 0019559 107.8004 252.5348 14.85442989 31652
